[{"OBJECT_NAME":"AL MUNTHER","OBJECT_ID":"2025-052AG","EPOCH":"2026-03-09T15:29:23.207136","MEAN_MOTION":15.28381521,"ECCENTRICITY":0.0008027,"INCLINATION":97.4001,"RA_OF_ASC_NODE":323.9152,"ARG_OF_PERICENTER":130.7043,"MEAN_ANOMALY":229.4895,"EPHEMERIS_TYPE":0,"CLASSIFICATION_TYPE":"U","NORAD_CAT_ID":63240,"ELEMENT_SET_NO":999,"REV_AT_EPOCH":5479,"BSTAR":0.00065015,"MEAN_MOTION_DOT":0.00017933,"MEAN_MOTION_DDOT":0},{"OBJECT_NAME":"STARLINK-34119","OBJECT_ID":"2025-095F","EPOCH":"2026-03-09T06:56:06.153504","MEAN_MOTION":15.27561474,"ECCENTRICITY":5.112e-5,"INCLINATION":42.9992,"RA_OF_ASC_NODE":178.7369,"ARG_OF_PERICENTER":222.3081,"MEAN_ANOMALY":137.7731,"EPHEMERIS_TYPE":0,"CLASSIFICATION_TYPE":"U","NORAD_CAT_ID":63895,"ELEMENT_SET_NO":999,"REV_AT_EPOCH":4772,"BSTAR":0.0012113934,"MEAN_MOTION_DOT":0.00033204,"MEAN_MOTION_DDOT":0}]
